[{"OBJECT_NAME":"STARLINK-6094","OBJECT_ID":"2023-046AF","EPOCH":"2026-03-09T22:00:01.999584","MEAN_MOTION":15.16787641,"ECCENTRICITY":0.00013389,"INCLINATION":42.9997,"RA_OF_ASC_NODE":156.7902,"ARG_OF_PERICENTER":276.448,"MEAN_ANOMALY":201.6729,"EPHEMERIS_TYPE":0,"CLASSIFICATION_TYPE":"U","NORAD_CAT_ID":56122,"ELEMENT_SET_NO":999,"REV_AT_EPOCH":577,"BSTAR":0.059129505,"MEAN_MOTION_DOT":0.01280249,"MEAN_MOTION_DDOT":0},{"OBJECT_NAME":"CZ-6A DEB","OBJECT_ID":"2022-151QB","EPOCH":"2026-03-08T18:03:47.471328","MEAN_MOTION":15.32168285,"ECCENTRICITY":0.00205863,"INCLINATION":98.6246,"RA_OF_ASC_NODE":151.4486,"ARG_OF_PERICENTER":181.9757,"MEAN_ANOMALY":178.1404,"EPHEMERIS_TYPE":0,"CLASSIFICATION_TYPE":"U","NORAD_CAT_ID":54890,"ELEMENT_SET_NO":999,"REV_AT_EPOCH":17659,"BSTAR":0.012866954,"MEAN_MOTION_DOT":0.00424465,"MEAN_MOTION_DDOT":0}]
